     3.02           N: GNSS NAV DATA    J: QZSS             RINEX VERSION / TYPE
Spider v7.5.1.8670  SMO                 20250117 080400 UTC PGM / RUN BY / DATE
QZSA   2.2352D-08  0.0000D+00 -4.1723D-07 -7.1526D-07       IONOSPHERIC CORR
QZSB   1.1264D+05 -3.4406D+05 -2.6214D+06 -8.3886D+06       IONOSPHERIC CORR
QZUT  4.6566128731D-09 0.000000000D+00  94208 2350          TIME SYSTEM CORR
    18    18  2185     7                                    LEAP SECONDS
                                                            END OF HEADER
J02 2025 01 17 07 00 00-6.109476089478D-07-2.273736754432D-13 0.000000000000D+00
     5.700000000000D+01-1.990000000000D+02 3.104772217100D-09-2.733041938715D+00
    -6.012618541718D-06 7.505028438754D-02-4.805624485016D-06 6.493350238800D+03
     4.572000000000D+05-5.513429641724D-07 2.426911151391D+00 9.313225746155D-07
     7.017409940777D-01 2.797187500000D+02-1.577051771816D+00-3.128344593823D-09
     8.857511946125D-11 2.000000000000D+00 2.349000000000D+03 0.000000000000D+00
     2.800000000000D+00 1.000000000000D+00 1.396983861923D-09 8.250000000000D+02
     4.536000000000D+05 0.000000000000D+00
J03 2025 01 17 07 00 00-2.318993210793D-07-1.136868377216D-13 0.000000000000D+00
     5.700000000000D+01 3.597812500000D+02 2.523319331260D-09 1.754455236171D+00
     1.304782927036D-05 7.504858134780D-02 1.784600317478D-05 6.492906101227D+03
     4.572000000000D+05-5.774199962616D-08-2.122865279803D+00-1.037493348122D-06
     7.052492223123D-01-4.510937500000D+02-1.587899206970D+00-2.511176029133D-09
     1.664355042674D-10 2.000000000000D+00 2.349000000000D+03 0.000000000000D+00
     2.800000000000D+00 1.000000000000D+00 9.313225746155D-10 8.250000000000D+02
     4.536000000000D+05 0.000000000000D+00
J04 2025 01 17 07 00 00 2.119038254023D-05 0.000000000000D+00 0.000000000000D+00
     5.700000000000D+01-3.941562500000D+02 2.990124592372D-09-7.438478930505D-02
    -1.383386552334D-05 7.571543939412D-02-3.069639205933D-06 6.493914417267D+03
     4.572000000000D+05-2.961605787277D-07-4.245912780681D-01-2.235174179077D-08
     6.356364630044D-01 2.072187500000D+02-1.540126081027D+00-3.489073905362D-09
    -1.232194207779D-10 2.000000000000D+00 2.349000000000D+03 0.000000000000D+00
     2.800000000000D+00 1.000000000000D+00-3.259629011154D-09 8.250000000000D+02
     4.536000000000D+05 0.000000000000D+00
J07 2025 01 17 07 00 00-2.374872565269D-08 0.000000000000D+00 0.000000000000D+00
     5.700000000000D+01-5.906250000000D+00 0.000000000000D+00 7.753861144469D-01
    -3.334134817123D-07 1.874917652458D-04 1.894123852253D-05 6.493372724533D+03
     4.572000000000D+05-2.218410372734D-06 5.841261445928D-01 1.402571797371D-06
     8.848869619510D-04-5.751875000000D+02 2.781219944791D+00 9.389676832015D-10
     0.000000000000D+00 2.000000000000D+00 2.349000000000D+03 0.000000000000D+00
     2.800000000000D+00 1.000000000000D+00-4.656612873077D-09 8.250000000000D+02
     4.536000000000D+05 0.000000000000D+00
J04 2025 01 17 08 00 00 2.119038254023D-05 0.000000000000D+00 0.000000000000D+00
     6.100000000000D+01-3.774062500000D+02 3.221205524540D-09 1.880892573011D-01
    -1.341849565506D-05 7.570644957013D-02-5.060806870461D-06 6.493889484406D+03
     4.608000000000D+05-3.147870302200D-07-4.246035680429D-01-7.450580596924D-08
     6.356359363538D-01 2.860625000000D+02-1.540134634709D+00-3.483002223880D-09
    -1.450060349573D-10 2.000000000000D+00 2.349000000000D+03 0.000000000000D+00
     2.800000000000D+00 1.000000000000D+00-3.259629011154D-09 8.290000000000D+02
     4.572000000000D+05 0.000000000000D+00
J07 2025 01 17 08 00 00-2.328306436539D-08 0.000000000000D+00 0.000000000000D+00
     6.100000000000D+01-3.368750000000D+01 0.000000000000D+00 1.050683479196D+00
    -1.193955540657D-06 1.857139868662D-04 1.936219632626D-05 6.493365503311D+03
     4.608000000000D+05-2.130866050720D-06 5.845878254466D-01-1.527369022369D-07
     8.868999372280D-04-5.887500000000D+02 2.767983530767D+00 9.868268195838D-10
     0.000000000000D+00 2.000000000000D+00 2.349000000000D+03 0.000000000000D+00
     2.800000000000D+00 1.000000000000D+00-4.656612873077D-09 8.290000000000D+02
     4.572000000000D+05 0.000000000000D+00
J02 2025 01 17 08 00 00-6.118789315224D-07-2.273736754432D-13 0.000000000000D+00
     6.100000000000D+01-1.920312500000D+02 2.403671484075D-09-2.470519062830D+00
    -5.505979061127D-06 7.505189278163D-02-4.833564162254D-06 6.493345361710D+03
     4.608000000000D+05-2.976506948471D-06 2.426887488691D+00 2.235174179077D-08
     7.017447259817D-01 2.795000000000D+02-1.577031690340D+00-2.299024335020D-09
     7.164583926134D-10 2.000000000000D+00 2.349000000000D+03 0.000000000000D+00
     2.800000000000D+00 1.000000000000D+00 1.396983861923D-09 8.290000000000D+02
     4.572000000000D+05 0.000000000000D+00
J03 2025 01 17 08 00 00-2.318993210793D-07-1.136868377216D-13 0.000000000000D+00
     6.100000000000D+01 3.648750000000D+02 2.501890028483D-09 2.017036132851D+00
     1.310743391514D-05 7.504833070561D-02 1.788325607777D-05 6.492906915665D+03
     4.608000000000D+05 5.606561899185D-07-2.122874363061D+00-1.257285475731D-06
     7.052497065382D-01-4.507812500000D+02-1.587895494084D+00-2.511176029133D-09
     2.617966121665D-10 2.000000000000D+00 2.349000000000D+03 0.000000000000D+00
     2.800000000000D+00 1.000000000000D+00 9.313225746155D-10 8.290000000000D+02
     4.572000000000D+05 0.000000000000D+00
